THOR 5                  
1 32487U 08006A   17282.25188397 -.00000022  00000-0  00000-0 0  9996
2 32487   0.0221 240.3440 0002592 330.7728 256.8930  1.00272329 35485
KIZUNA (WINDS)          
1 32500U 08007A   17282.55366439 -.00000272  00000-0  00000-0 0  9998
2 32500   1.0708  89.5755 0002441 105.8804 165.2457  1.00272054 35081
AMC-14                  
1 32708U 08011A   17282.05192421  .00000092  00000-0  00000-0 0  9995
2 32708  19.3211  61.1355 0033035 358.3380 355.1918  1.00267472 36330
DIRECTV 11              
1 32729U 08013A   17282.17618625 -.00000139  00000-0  00000-0 0  9995
2 32729   0.0223  25.9423 0000325 190.9387 125.3697  1.00271474 13793
ICO G1                  
1 32763U 08016A   17282.41720917 -.00000186  00000-0  00000+0 0  9992
2 32763   3.7951 356.4255 0002743 214.5089 224.6478  1.00271612 34654
VINASAT-1               
1 32767U 08018A   17281.58513944 -.00000340  00000-0  00000+0 0  9997
2 32767   0.0124 171.0809 0001849  48.2118 140.6939  1.00270354 34782
STAR ONE C2             
1 32768U 08018B   17282.14448483 -.00000278  00000-0  00000+0 0  9996
2 32768   0.0256 174.8366 0003534  51.1184 134.0464  1.00271448 34737
TIANLIAN 1-01           
1 32779U 08019A   17282.53174150 -.00000150  00000-0  10000-3 0  9993
2 32779   2.7833  75.3616 0033301 226.8596 347.5466  1.00270894 34653
AMOS-3                  
1 32794U 08022A   17282.25674288 -.00000048  00000-0  00000-0 0  9992
2 32794   0.0193 160.8378 0002100  47.9325 257.6199  1.00271250 50558
GALAXY 18 (G-18)        
1 32951U 08024A   17282.29137478  .00000012  00000-0  00000-0 0  9998
2 32951   0.0087 231.6701 0003432 339.6017 148.7379  1.00272540 14081
CHINASAT 9 (ZX 9)       
1 33051U 08028A   17282.26621302 -.00000261  00000-0  00000-0 0  9992
2 33051   0.0204 271.5757 0003888 290.6661   3.8671  1.00270276 34198
SKYNET 5C               
1 33055U 08030A   17282.42063174 -.00000153  00000-0  00000+0 0  9993
2 33055   0.0608  15.9741 0004146 185.5835 310.2958  1.00271073 34083
TURKSAT 3A              
1 33056U 08030B   17282.59633405  .00000132  00000-0  00000-0 0  9999
2 33056   0.0770  84.7922 0004133  96.1912  94.1148  1.00273436 20548
INTELSAT 25 (IS-25)     
1 33153U 08034A   17282.03786024 -.00000236  00000-0  00000-0 0  9992
2 33153   0.0111 228.4433 0002539   2.5055 129.0591  1.00270535 33930
BADR-6                  
1 33154U 08034B   17282.40118928  .00000131  00000-0  00000-0 0  9999
2 33154   0.0669  43.0316 0001937 137.7588   7.8645  1.00273673 33943
ECHOSTAR 11             
1 33207U 08035A   17282.25533993 -.00000070  00000-0  00000-0 0  9998
2 33207   0.0310 108.8785 0002970 105.9085 145.2238  1.00272022 19432
SUPERBIRD-C2            
1 33274U 08038A   17282.55368726 -.00000265  00000-0  00000-0 0  9994
2 33274   0.0417  88.8666 0001987 113.4045 159.3907  1.00271429 73918
AMC-21                  
1 33275U 08038B   17282.59312351  .00000022  00000-0  00000-0 0  9992
2 33275   0.0529  66.5929 0002718 153.5189 246.9241  1.00270711 33682
INMARSAT 4-F3           
1 33278U 08039A   17282.47585345 -.00000152  00000-0  00000+0 0  9992
2 33278   3.0260   2.5390 0002756 202.5725 246.5151  1.00271942 33453
NIMIQ 4                 
1 33373U 08044A   17282.49004402 -.00000234  00000-0  00000-0 0  9998
2 33373   0.0139 135.1352 0002007  64.1635 273.4449  1.00271627 33160
GALAXY 19 (G-19)        
1 33376U 08045A   17282.21934737 -.00000152  00000-0  00000-0 0  9994
2 33376   0.0099 168.6542 0003246  39.5341 151.8243  1.00271572 33133
VENESAT-1               
1 33414U 08055A   17282.49004402 -.00000251  00000-0  00000-0 0  9995
2 33414   0.0022 310.3865 0003338 289.9627 236.3613  1.00268988 32873
ASTRA 1M                
1 33436U 08057A   17282.24216000  .00000107  00000-0  00000-0 0  9992
2 33436   0.0578  96.0063 0004810  78.3547 310.0680  1.00272559 13937
CIEL-2                  
1 33453U 08063A   17282.63801163  .00000044  00000-0  00000-0 0  9991
2 33453   0.0161 142.3823 0003234  63.9248 272.9835  1.00271180 32354
EUTELSAT HOT BIRD 13C   
1 33459U 08065A   17281.91464357  .00000075  00000-0  00000-0 0  9993
2 33459   0.0469   5.0706 0004247 178.7303 176.2263  1.00273550 15555
EUTELSAT 48D            
1 33460U 08065B   17282.57908539  .00000109  00000-0  00000-0 0  9991
2 33460   0.0620  32.5915 0002792 188.2545  54.1342  1.00273537 32208
FENGYUN 2E              
1 33463U 08066A   17282.59007546 -.00000216  00000-0  00000-0 0  9995
2 33463   2.3922  67.6668 0005342 217.9684  31.9863  1.00271003 32277
EXPRESS-AM44            
1 33595U 09007A   17282.25674288 -.00000102  00000-0  00000-0 0  9997
2 33595   0.0210 306.2369 0000736 317.0872 196.1957  1.00272456 31743
NSS-9                   
1 33749U 09008A   17282.56850323  .00000058  00000-0  00000+0 0  9997
2 33749   0.0476  54.4855 0002434 144.8727 206.7609  1.00272865 31759
EUTELSAT 33E            
1 33750U 09008B   17282.39632997  .00000142  00000-0  00000-0 0  9990
2 33750   0.0436   7.9047 0005860 200.4488 345.6250  1.00271503 31643
TELSTAR 11N             
1 34111U 09009A   17281.74077109 -.00000263  00000-0  00000+0 0  9993
2 34111   0.0012 186.5544 0002236 348.8758  71.2635  1.00271074 31598
EUTELSAT 10A            
1 34710U 09016A   17282.56577078  .00000054  00000-0  00000-0 0  9995
2 34710   0.0668   9.2533 0004874 191.3378  31.4579  1.00271429  9446
SES-7 (PROTOSTAR 2)     
1 34941U 09027A   17282.52184942 -.00000359  00000-0  00000-0 0  9992
2 34941   0.0731  83.1497 0002587 164.5322  66.7903  1.00269580 30826
MEASAT-3A               
1 35362U 09032A   17281.69712151 -.00000254  00000-0  00000-0 0  9996
2 35362   0.0282 194.4440 0003394  22.8591 142.7043  1.00270341 30412
GOES 14                 
1 35491U 09033A   17282.23958499 -.00000107  00000-0  00000+0 0  9994
2 35491   0.3104 274.6968 0010561 307.2059 138.0466  1.00272786 30344
SIRIUS FM-5             
1 35493U 09034A   17282.49490389 -.00000214  00000-0  00000-0 0  9994
2 35493   0.0233 283.6736 0000524  98.3785  88.2967  1.00270685 14925
TERRESTAR-1             
1 35496U 09035A   17282.22077443 -.00000070  00000-0  00000-0 0  9991
2 35496   2.8105 346.8174 0002958 217.1520 142.5441  1.00272031 30369
ASIASAT 5               
1 35696U 09042A   17282.55253619 -.00000321  00000-0  00000-0 0  9997
2 35696   0.0079 253.3022 0001837 233.9939 190.4989  1.00269398 29853
JCSAT-RA (JCSAT-12)     
1 35755U 09044A   17281.59623836 -.00000357  00000-0  00000-0 0  9999
2 35755   0.0867  69.8335 0001454 134.0161 156.1748  1.00271425 29793
OPTUS D3                
1 35756U 09044B   17282.49771588 -.00000161  00000-0  00000-0 0  9991
2 35756   0.0545  43.0151 0002755 176.0859 134.3992  1.00270231 29751
PALAPA D                
1 35812U 09046A   17281.63766689 -.00000370  00000-0  00000-0 0  9999
2 35812   0.0374  68.2996 0002505 168.1521 123.5555  1.00271246 29865
NIMIQ 5                 
1 35873U 09050A   17282.31766726 -.00000270  00000-0  00000-0 0  9998
2 35873   0.0347 100.1738 0002292 107.8618 211.7820  1.00271320 29545
AMAZONAS 2              
1 35942U 09054A   17282.55254244 -.00000296  00000-0  00000-0 0  9990
2 35942   0.0406 128.7001 0004776  52.1126 335.4920  1.00273143 29384
COMSATBW-1              
1 35943U 09054B   17282.56368861  .00000010  00000-0  00000-0 0  9996
2 35943   0.0474  80.5553 0002593 143.3144  60.4592  1.00269783 29492
NSS-12                  
1 36032U 09058A   17281.79275279  .00000059  00000-0  00000-0 0  9997
2 36032   0.0412  76.7343 0002602 132.2690 151.0131  1.00273627 29119
THOR 6                  
1 36033U 09058B   17282.25188397 -.00000023  00000-0  00000-0 0  9996
2 36033   0.0297 130.1323 0002238  90.8859 246.8958  1.00272348 29226
INTELSAT 14 (IS-14)     
1 36097U 09064A   17282.07526466 -.00000286  00000-0  00000+0 0  9996
2 36097   0.0190 158.0479 0002668  47.1468 154.8227  1.00271400 28894
EUTELSAT 36B            
1 36101U 09065A   17282.39632997  .00000142  00000-0  00000-0 0  9996
2 36101   0.0677  10.0050 0004546 196.6183 350.1782  1.00270358 28914
INTELSAT 15 (IS-15)     
1 36106U 09067A   17282.59007546 -.00000199  00000-0  00000-0 0  9994
2 36106   0.0138 221.1046 0002510 356.9594  97.9009  1.00269579  9490
DIRECTV 12              
1 36131U 09075A   17282.41696522 -.00000116  00000-0  00000+0 0  9998
2 36131   0.0116 237.8776 0000344  42.2774 145.3680  1.00270235 28570
BEIDOU G1               
1 36287U 10001A   17282.50535616 -.00000296  00000-0  00000-0 0  9997
2 36287   1.4772   7.1375 0004430 180.3988 152.7344  1.00274095 28352
RADUGA-1M 2             
1 36358U 10002A   17282.50529368 -.00000198  00000-0  00000-0 0  9995
2 36358   0.0287 253.5393 0002524   8.6390  23.0754  1.00270510 18290
SDO                     
1 36395U 10005A   17282.12271413 -.00000056  00000-0  00000+0 0  9994
2 36395  28.8876 138.3916 0001524  91.6669  90.2560  1.00274117 28215
INTELSAT 16 (IS-16)     
1 36397U 10006A   17282.43214282 -.00000299  00000-0  00000+0 0  9991
2 36397   0.0178 152.3350 0001810  56.7423 266.6653  1.00271750 27929
GOES 15                 
1 36411U 10008A   17282.32569617  .00000076  00000-0  00000+0 0  9995
2 36411   0.2837 275.4582 0004991 274.8066 169.7548  1.00274377 27871
ECHOSTAR 14             
1 36499U 10010A   17282.27787426 -.00000013  00000-0  00000+0 0  9990
2 36499   0.0136 228.6594 0002847 329.3197 161.2656  1.00271600 27726
SES-1                   
1 36516U 10016A   17282.57587240 -.00000128  00000-0  00000-0 0  9999
2 36516   0.0457  62.5507 0002173 143.6695 278.5005  1.00271276 27249
ASTRA 3B                
1 36581U 10021A   17282.40118928  .00000123  00000-0  00000-0 0  9996
2 36581   0.0513 316.1041 0003043 243.7421 346.2942  1.00272483 27065
COMSATBW-2              
1 36582U 10021B   17282.56577078  .00000075  00000-0  00000-0 0  9995
2 36582   0.0118 236.1500 0002301 347.2704  11.8794  1.00274326 27167
